OBJECT_NAME,OBJECT_ID,EPOCH,MEAN_MOTION,ECCENTRICITY,INCLINATION,RA_OF_ASC_NODE,ARG_OF_PERICENTER,MEAN_ANOMALY,EPHEMERIS_TYPE,CLASSIFICATION_TYPE,NORAD_CAT_ID,ELEMENT_SET_NO,REV_AT_EPOCH,BSTAR,MEAN_MOTION_DOT,MEAN_MOTION_DDOT
STARLINK-36996,2026-041AA,2026-07-04T09:39:17.074080,15.34407011,.00013911,53.1564,224.4792,94.7151,265.4011,0,U,68064,999,1930,.10234546E-2,.34369E-3,0
STARLINK-36836,2026-041AB,2026-07-04T11:53:15.579744,15.34419873,.00012412,53.1569,226.4684,96.4706,263.6438,0,U,68065,999,1928,.11063352E-2,.37212E-3,0
STARLINK-36976,2026-041AC,2026-07-04T19:14:08.774880,15.34456246,.00011774,53.1558,222.7085,290.0815,70.0061,0,U,68066,999,1936,.14513538E-2,.49069E-3,0
STARLINK-36929,2026-041AD,2026-07-04T20:05:40.496928,15.34425254,.00020021,53.1569,222.9402,95.4950,264.6281,0,U,68067,999,1936,.13428212E-2,.45305E-3,0
STARLINK-36990,2026-041AE,2026-07-04T12:32:30.726240,15.34450521,.00013379,53.1571,225.9330,87.8898,272.2258,0,U,68068,999,1929,.20982628E-2,.71308E-3,0
STARLINK-36766,2026-042A,2026-07-04T20:13:51.941856,15.34436009,.00009491,53.1600,353.0222,68.7816,291.3288,0,U,68069,999,2026,.12647128E-2,.42646E-3,0
STARLINK-36823,2026-042B,2026-07-04T21:07:26.583456,15.34437915,.00009423,53.1593,350.3644,89.4318,270.6793,0,U,68070,999,2030,.13581858E-2,.45848E-3,0
STARLINK-36970,2026-042C,2026-07-04T18:21:53.315424,15.34434282,.00009176,53.1602,353.2460,77.7746,282.3359,0,U,68071,999,2025,.13700599E-2,.4625E-3,0
STARLINK-36972,2026-042D,2026-07-04T17:33:24.363072,15.34445783,.0000994,53.1613,353.0230,92.8835,267.2282,0,U,68072,999,2025,.16094674E-2,.54477E-3,0
STARLINK-37074,2026-042E,2026-07-04T17:48:33.619392,15.34442669,.00009461,53.1603,353.0913,60.2423,299.8674,0,U,68073,999,2025,.13160727E-2,.44413E-3,0
STARLINK-37045,2026-042F,2026-07-04T21:35:32.143776,15.34444951,.00008743,53.1586,352.6748,79.5973,280.5128,0,U,68074,999,2027,.14280779E-2,.48254E-3,0
STARLINK-37026,2026-042G,2026-07-04T20:10:50.049120,15.34444138,.00020776,53.1602,353.0119,90.1519,269.9722,0,U,68075,999,2026,.12181974E-2,.41067E-3,0
STARLINK-37023,2026-042H,2026-07-04T21:23:24.742176,15.34450740,.00008354,53.1580,352.6125,86.3287,273.7811,0,U,68076,999,2027,.10302234E-2,.34649E-3,0
STARLINK-37036,2026-042J,2026-07-04T20:22:08.033376,15.34449110,.00012565,53.1608,350.9087,24.2613,335.8448,0,U,68077,999,2029,.12239348E-2,.41269E-3,0
STARLINK-36973,2026-042K,2026-07-04T20:53:06.425664,15.34400161,.000098,53.1613,352.4697,79.9445,280.1668,0,U,68078,999,2027,.15937067E-2,.53857E-3,0
STARLINK-37063,2026-042L,2026-07-04T21:14:19.421664,15.34447498,.00007094,53.1588,352.5624,86.6472,273.4611,0,U,68079,999,2027,.13494219E-2,.45562E-3,0
STARLINK-37051,2026-042M,2026-07-04T20:10:00.604992,15.34447843,.00009466,53.1608,350.8354,58.0256,302.0839,0,U,68080,999,2029,.12012302E-2,.4049E-3,0
STARLINK-37066,2026-042N,2026-07-04T17:26:40.094880,15.34465981,.00027135,53.1620,351.5708,79.3828,280.7480,0,U,68081,999,2027,.15751255E-2,.53336E-3,0
STARLINK-37054,2026-042P,2026-07-04T20:59:10.122144,15.34472751,.00005647,53.1606,352.4852,42.0758,318.0288,0,U,68082,999,2027,.1684557E-2,.57106E-3,0
STARLINK-37065,2026-042Q,2026-07-04T16:57:11.342592,15.34457516,.00005971,53.1596,353.5943,97.8720,262.2351,0,U,68083,999,2024,.18294523E-2,.62061E-3,0
STARLINK-37037,2026-042R,2026-07-04T17:39:28.323072,15.34443391,.00009997,53.1617,353.0542,74.0526,286.0587,0,U,68084,999,2025,.20669468E-2,.70211E-3,0
STARLINK-37068,2026-042S,2026-07-04T18:42:18.212544,15.34472326,.00009866,53.1597,351.1755,111.3308,248.7800,0,U,68085,999,2028,.22410098E-2,.76288E-3,0
STARLINK-37067,2026-042T,2026-07-04T20:28:11.340192,15.34453031,.00009297,53.1604,350.9121,99.0225,261.0882,0,U,68086,999,2029,.16588706E-2,.56187E-3,0
STARLINK-37062,2026-042U,2026-07-04T20:31:54.602976,15.34441799,.00011075,53.1607,352.3654,74.7397,285.3728,0,U,68087,999,2027,.12435284E-2,.41929E-3,0
STARLINK-37059,2026-042V,2026-07-04T19:52:39.117792,15.34435087,.00009231,53.1580,352.9316,87.3901,272.7207,0,U,68088,999,2026,.1291293E-2,.43554E-3,0
STARLINK-37004,2026-042W,2026-07-04T20:19:54.934176,15.34447835,.00007213,53.1611,353.0452,102.0743,258.0341,0,U,68089,999,2026,.12549179E-2,.42327E-3,0
STARLINK-36320,2026-042X,2026-07-04T17:30:22.678560,15.34466845,.00010015,53.1605,353.0170,104.3728,255.7386,0,U,68090,999,2025,.22679213E-2,.77205E-3,0
STARLINK-36324,2026-042Y,2026-07-04T18:52:03.074016,15.34443095,.00008672,53.1604,352.6559,101.4851,258.6249,0,U,68091,999,2026,.12471437E-2,.42055E-3,0
STARLINK-36896,2026-042Z,2026-07-04T21:11:17.313792,15.34461862,.00010172,53.1595,352.5533,75.7748,284.3367,0,U,68092,999,2026,.13785546E-2,.46582E-3,0
STARLINK-36251,2026-042AA,2026-07-04T21:08:15.546336,15.34455316,.00009533,53.1589,352.5388,74.5566,285.5542,0,U,68093,999,2026,.12902258E-2,.43546E-3,0
