STARLINK-36996          
1 68064U 26041AA  26185.40228095  .00034369  00000+0  10235-2 0  9996
2 68064  53.1564 224.4792 0001391  94.7151 265.4011 15.34407011 19309
STARLINK-36836          
1 68065U 26041AB  26185.49531921  .00037212  00000+0  11063-2 0  9991
2 68065  53.1569 226.4684 0001241  96.4706 263.6438 15.34419873 19285
STARLINK-36976          
1 68066U 26041AC  26185.80149045  .00049069  00000+0  14514-2 0  9996
2 68066  53.1558 222.7085 0001177 290.0815  70.0061 15.34456246 19365
STARLINK-36929          
1 68067U 26041AD  26185.83727427  .00045305  00000+0  13428-2 0  9998
2 68067  53.1569 222.9402 0002002  95.4950 264.6281 15.34425254 19368
STARLINK-36990          
1 68068U 26041AE  26185.52257785  .00071308  00000+0  20983-2 0  9996
2 68068  53.1571 225.9330 0001337  87.8898 272.2258 15.34450521 19297
STARLINK-36766          
1 68069U 26042A   26185.84296229  .00042646  00000+0  12647-2 0  9990
2 68069  53.1600 353.0222 0000949  68.7816 291.3288 15.34436009 20269
STARLINK-36823          
1 68070U 26042B   26185.88016879  .00045848  00000+0  13582-2 0  9993
2 68070  53.1593 350.3644 0000942  89.4318 270.6793 15.34437915 20303
STARLINK-36970          
1 68071U 26042C   26185.76520041  .00046250  00000+0  13701-2 0  9993
2 68071  53.1602 353.2460 0000917  77.7746 282.3359 15.34434282 20256
STARLINK-36972          
1 68072U 26042D   26185.73153198  .00054477  00000+0  16095-2 0  9995
2 68072  53.1613 353.0230 0000994  92.8835 267.2282 15.34445783 20259
STARLINK-37074          
1 68073U 26042E   26185.74205578  .00044413  00000+0  13161-2 0  9997
2 68073  53.1603 353.0913 0000946  60.2423 299.8674 15.34442669 20252
STARLINK-37045          
1 68074U 26042F   26185.89967759  .00048254  00000+0  14281-2 0  9991
2 68074  53.1586 352.6748 0000874  79.5973 280.5128 15.34444951 20276
STARLINK-37026          
1 68075U 26042G   26185.84085705  .00041067  00000+0  12182-2 0  9992
2 68075  53.1602 353.0119 0002077  90.1519 269.9722 15.34444138 20262
STARLINK-37023          
1 68076U 26042H   26185.89125859  .00034649  00000+0  10302-2 0  9993
2 68076  53.1580 352.6125 0000835  86.3287 273.7811 15.34450740 20278
STARLINK-37036          
1 68077U 26042J   26185.84870409  .00041269  00000+0  12239-2 0  9994
2 68077  53.1608 350.9087 0001256  24.2613 335.8448 15.34449110 20297
STARLINK-36973          
1 68078U 26042K   26185.87021326  .00053857  00000+0  15937-2 0  9998
2 68078  53.1613 352.4697 0000980  79.9445 280.1668 15.34400161 20278
STARLINK-37063          
1 68079U 26042L   26185.88494701  .00045562  00000+0  13494-2 0  9991
2 68079  53.1588 352.5624 0000709  86.6472 273.4611 15.34447498 20272
STARLINK-37051          
1 68080U 26042M   26185.84028478  .00040490  00000+0  12012-2 0  9993
2 68080  53.1608 350.8354 0000946  58.0256 302.0839 15.34447843 20291
STARLINK-37066          
1 68081U 26042N   26185.72685295  .00053336  00000+0  15751-2 0  9993
2 68081  53.1620 351.5708 0002713  79.3828 280.7480 15.34465981 20277
STARLINK-37054          
1 68082U 26042P   26185.87442271  .00057106  00000+0  16846-2 0  9990
2 68082  53.1606 352.4852 0000564  42.0758 318.0288 15.34472751 20277
STARLINK-37065          
1 68083U 26042Q   26185.70638128  .00062061  00000+0  18295-2 0  9997
2 68083  53.1596 353.5943 0000597  97.8720 262.2351 15.34457516 20242
STARLINK-37037          
1 68084U 26042R   26185.73574448  .00070211  00000+0  20669-2 0  9999
2 68084  53.1617 353.0542 0000999  74.0526 286.0587 15.34443391 20256
STARLINK-37068          
1 68085U 26042S   26185.77937746  .00076288  00000+0  22410-2 0  9994
2 68085  53.1597 351.1755 0000986 111.3308 248.7800 15.34472326 20284
STARLINK-37067          
1 68086U 26042T   26185.85290903  .00056187  00000+0  16589-2 0  9997
2 68086  53.1604 350.9121 0000929  99.0225 261.0882 15.34453031 20296
STARLINK-37062          
1 68087U 26042U   26185.85549309  .00041929  00000+0  12435-2 0  9999
2 68087  53.1607 352.3654 0001107  74.7397 285.3728 15.34441799 20270
STARLINK-37059          
1 68088U 26042V   26185.82823053  .00043554  00000+0  12913-2 0  9995
2 68088  53.1580 352.9316 0000923  87.3901 272.7207 15.34435087 20262
STARLINK-37004          
1 68089U 26042W   26185.84716359  .00042327  00000+0  12549-2 0  9990
2 68089  53.1611 353.0452 0000721 102.0743 258.0341 15.34447835 20266
STARLINK-36320          
1 68090U 26042X   26185.72942915  .00077205  00000+0  22679-2 0  9996
2 68090  53.1605 353.0170 0001001 104.3728 255.7386 15.34466845 20252
STARLINK-36324          
1 68091U 26042Y   26185.78614669  .00042055  00000+0  12471-2 0  9999
2 68091  53.1604 352.6559 0000867 101.4851 258.6249 15.34443095 20265
STARLINK-36896          
1 68092U 26042Z   26185.88283928  .00046582  00000+0  13786-2 0  9990
2 68092  53.1595 352.5533 0001017  75.7748 284.3367 15.34461862 20261
STARLINK-36251          
1 68093U 26042AA  26185.88073549  .00043546  00000+0  12902-2 0  9993
2 68093  53.1589 352.5388 0000953  74.5566 285.5542 15.34455316 20261
